[{"OBJECT_NAME":"OBJECT AD","OBJECT_ID":"2023-085AD","EPOCH":"2026-03-09T21:41:29.115744","MEAN_MOTION":15.31779154,"ECCENTRICITY":0.00101154,"INCLINATION":97.4841,"RA_OF_ASC_NODE":180.2223,"ARG_OF_PERICENTER":77.5993,"MEAN_ANOMALY":282.638,"EPHEMERIS_TYPE":0,"CLASSIFICATION_TYPE":"U","NORAD_CAT_ID":57031,"ELEMENT_SET_NO":999,"REV_AT_EPOCH":15156,"BSTAR":0.00068352515,"MEAN_MOTION_DOT":0.00020961,"MEAN_MOTION_DDOT":0},{"OBJECT_NAME":"STARLINK-32796","OBJECT_ID":"2025-014E","EPOCH":"2026-03-09T05:51:33.518016","MEAN_MOTION":15.27587037,"ECCENTRICITY":8.861e-5,"INCLINATION":42.9965,"RA_OF_ASC_NODE":156.5235,"ARG_OF_PERICENTER":178.9526,"MEAN_ANOMALY":181.1328,"EPHEMERIS_TYPE":0,"CLASSIFICATION_TYPE":"U","NORAD_CAT_ID":62739,"ELEMENT_SET_NO":999,"REV_AT_EPOCH":6319,"BSTAR":0.0015179792,"MEAN_MOTION_DOT":0.00041755,"MEAN_MOTION_DDOT":0}]
